{
  "type": "FeatureCollection",
  "features": [
    {
      "type": "Feature",
      "properties": {
        "norad_id": 43706,
        "name": "BEIDOU-3 M17 (C36)",
        "group": "beidou",
        "lat": 50.026738240914824,
        "lon": -112.07029865013264,
        "alt_km": 21531.615294478896,
        "timestamp": "2025-12-20T14:38:02.235448+00:00",
        "meta_object_name": "BEIDOU-3 M17 (C36)",
        "meta_object_id": "2018-093A",
        "meta_epoch": "2025-12-20T05:36:59.861952",
        "meta_mean_motion": 1.86228486,
        "meta_eccentricity": 0.000606,
        "meta_inclination": 54.1746,
        "meta_ra_of_asc_node": 188.3673,
        "meta_arg_of_pericenter": 307.8165,
        "meta_mean_anomaly": 231.273,
        "meta_ephemeris_type": 0,
        "meta_classification_type": "U",
        "meta_norad_cat_id": 43706,
        "meta_element_set_no": 999,
        "meta_rev_at_epoch": 4820,
        "meta_bstar": 0,
        "meta_mean_motion_dot": 9.8e-07,
        "meta_mean_motion_ddot": 0,
        "tle_line1": "1 43706U 18093A   25354.23402618  .00000098  00000+0  00000+0 0  9991",
        "tle_line2": "2 43706  54.1746 188.3673 0006060 307.8165 231.2730  1.86228486 48204"
      },
      "geometry": {
        "type": "Point",
        "coordinates": [
          -112.07029865013264,
          50.026738240914824
        ]
      }
    },
    {
      "type": "Feature",
      "properties": {
        "norad_id": 43707,
        "name": "BEIDOU-3 M18 (C37)",
        "group": "beidou",
        "lat": 13.038196258976841,
        "lon": -1.2839916070582515,
        "alt_km": 21544.273609215845,
        "timestamp": "2025-12-20T14:38:02.235460+00:00",
        "meta_object_name": "BEIDOU-3 M18 (C37)",
        "meta_object_id": "2018-093B",
        "meta_epoch": "2025-12-19T19:53:02.312736",
        "meta_mean_motion": 1.86226834,
        "meta_eccentricity": 0.00062874,
        "meta_inclination": 54.1737,
        "meta_ra_of_asc_node": 188.373,
        "meta_arg_of_pericenter": 353.4895,
        "meta_mean_anomaly": 6.5612,
        "meta_ephemeris_type": 0,
        "meta_classification_type": "U",
        "meta_norad_cat_id": 43707,
        "meta_element_set_no": 999,
        "meta_rev_at_epoch": 4819,
        "meta_bstar": 0,
        "meta_mean_motion_dot": 1e-06,
        "meta_mean_motion_ddot": 0,
        "tle_line1": "1 43707U 18093B   25353.82849899  .00000100  00000+0  00000+0 0  9996",
        "tle_line2": "2 43707  54.1737 188.3730 0006287 353.4895   6.5612  1.86226834 48192"
      },
      "geometry": {
        "type": "Point",
        "coordinates": [
          -1.2839916070582515,
          13.038196258976841
        ]
      }
    },
    {
      "type": "Feature",
      "properties": {
        "norad_id": 44231,
        "name": "BEIDOU-2 G8 (C01)",
        "group": "beidou",
        "lat": 0.5678319542368564,
        "lon": 93.46759127983286,
        "alt_km": 35802.17269573085,
        "timestamp": "2025-12-20T14:38:02.235472+00:00",
        "meta_object_name": "BEIDOU-2 G8 (C01)",
        "meta_object_id": "2019-027A",
        "meta_epoch": "2025-12-19T12:14:23.449632",
        "meta_mean_motion": 1.00276563,
        "meta_eccentricity": 0.0008196,
        "meta_inclination": 1.6785,
        "meta_ra_of_asc_node": 74.7229,
        "meta_arg_of_pericenter": 258.5641,
        "meta_mean_anomaly": 83.1013,
        "meta_ephemeris_type": 0,
        "meta_classification_type": "U",
        "meta_norad_cat_id": 44231,
        "meta_element_set_no": 999,
        "meta_rev_at_epoch": 2427,
        "meta_bstar": 0,
        "meta_mean_motion_dot": -2.24e-06,
        "meta_mean_motion_ddot": 0,
        "tle_line1": "1 44231U 19027A   25353.50999363 -.00000224  00000+0  00000+0 0  9992",
        "tle_line2": "2 44231   1.6785  74.7229 0008196 258.5641  83.1013  1.00276563 24270"
      },
      "geometry": {
        "type": "Point",
        "coordinates": [
          93.46759127983286,
          0.5678319542368564
        ]
      }
    },
    {
      "type": "Feature",
      "properties": {
        "norad_id": 44337,
        "name": "BEIDOU-3 IGSO-2 (C39)",
        "group": "beidou",
        "lat": -55.13766801948815,
        "lon": 67.58001065758076,
        "alt_km": 35729.083965252685,
        "timestamp": "2025-12-20T14:38:02.235484+00:00",
        "meta_object_name": "BEIDOU-3 IGSO-2 (C39)",
        "meta_object_id": "2019-035A",
        "meta_epoch": "2025-12-19T20:41:01.781088",
        "meta_mean_motion": 1.00269267,
        "meta_eccentricity": 0.0037549,
        "meta_inclination": 55.228,
        "meta_ra_of_asc_node": 160.4388,
        "meta_arg_of_pericenter": 202.2301,
        "meta_mean_anomaly": 155.7105,
        "meta_ephemeris_type": 0,
        "meta_classification_type": "U",
        "meta_norad_cat_id": 44337,
        "meta_element_set_no": 999,
        "meta_rev_at_epoch": 2386,
        "meta_bstar": 0,
        "meta_mean_motion_dot": -6.2e-07,
        "meta_mean_motion_ddot": 0,
        "tle_line1": "1 44337U 19035A   25353.86182617 -.00000062  00000+0  00000+0 0  9993",
        "tle_line2": "2 44337  55.2280 160.4388 0037549 202.2301 155.7105  1.00269267 23869"
      },
      "geometry": {
        "type": "Point",
        "coordinates": [
          67.58001065758076,
          -55.13766801948815
        ]
      }
    },
    {
      "type": "Feature",
      "properties": {
        "norad_id": 44542,
        "name": "BEIDOU-3 M24 (C46)",
        "group": "beidou",
        "lat": 46.71210066441972,
        "lon": -40.79745111030756,
        "alt_km": 21522.871023885207,
        "timestamp": "2025-12-20T14:38:02.235496+00:00",
        "meta_object_name": "BEIDOU-3 M24 (C46)",
        "meta_object_id": "2019-061A",
        "meta_epoch": "2025-12-19T21:35:13.024320",
        "meta_mean_motion": 1.86229464,
        "meta_eccentricity": 0.00096018,
        "meta_inclination": 54.4003,
        "meta_ra_of_asc_node": 188.7744,
        "meta_arg_of_pericenter": 25.6941,
        "meta_mean_anomaly": 334.4131,
        "meta_ephemeris_type": 0,
        "meta_classification_type": "U",
        "meta_norad_cat_id": 44542,
        "meta_element_set_no": 999,
        "meta_rev_at_epoch": 4245,
        "meta_bstar": 0,
        "meta_mean_motion_dot": 1e-06,
        "meta_mean_motion_ddot": 0,
        "tle_line1": "1 44542U 19061A   25353.89945630  .00000100  00000+0  00000+0 0  9997",
        "tle_line2": "2 44542  54.4003 188.7744 0009601  25.6941 334.4131  1.86229464 42455"
      },
      "geometry": {
        "type": "Point",
        "coordinates": [
          -40.79745111030756,
          46.71210066441972
        ]
      }
    },
    {
      "type": "Feature",
      "properties": {
        "norad_id": 44543,
        "name": "BEIDOU-3 M23 (C45)",
        "group": "beidou",
        "lat": 23.195860215152443,
        "lon": -153.3854002353431,
        "alt_km": 21508.708747739285,
        "timestamp": "2025-12-20T14:38:02.235507+00:00",
        "meta_object_name": "BEIDOU-3 M23 (C45)",
        "meta_object_id": "2019-061B",
        "meta_epoch": "2025-12-19T04:54:38.810304",
        "meta_mean_motion": 1.86227724,
        "meta_eccentricity": 0.0006055,
        "meta_inclination": 54.3992,
        "meta_ra_of_asc_node": 188.7663,
        "meta_arg_of_pericenter": 24.9207,
        "meta_mean_anomaly": 142.055,
        "meta_ephemeris_type": 0,
        "meta_classification_type": "U",
        "meta_norad_cat_id": 44543,
        "meta_element_set_no": 999,
        "meta_rev_at_epoch": 4244,
        "meta_bstar": 0,
        "meta_mean_motion_dot": 1.04e-06,
        "meta_mean_motion_ddot": 0,
        "tle_line1": "1 44543U 19061B   25353.20461586  .00000104  00000+0  00000+0 0  9990",
        "tle_line2": "2 44543  54.3992 188.7663 0006055  24.9207 142.0550  1.86227724 42443"
      },
      "geometry": {
        "type": "Point",
        "coordinates": [
          -153.3854002353431,
          23.195860215152443
        ]
      }
    },
    {
      "type": "Feature",
      "properties": {
        "norad_id": 44793,
        "name": "BEIDOU-3 M22 (C44)",
        "group": "beidou",
        "lat": -33.928467444235494,
        "lon": 155.2127500387498,
        "alt_km": 21547.99411454468,
        "timestamp": "2025-12-20T14:38:02.235519+00:00",
        "meta_object_name": "BEIDOU-3 M22 (C44)",
        "meta_object_id": "2019-078A",
        "meta_epoch": "2025-12-19T04:51:35.344224",
        "meta_mean_motion": 1.86232161,
        "meta_eccentricity": 0.0006038,
        "meta_inclination": 54.1023,
        "meta_ra_of_asc_node": 306.1592,
        "meta_arg_of_pericenter": 24.3104,
        "meta_mean_anomaly": 335.7082,
        "meta_ephemeris_type": 0,
        "meta_classification_type": "U",
        "meta_norad_cat_id": 44793,
        "meta_element_set_no": 999,
        "meta_rev_at_epoch": 4129,
        "meta_bstar": 0,
        "meta_mean_motion_dot": -7.7e-07,
        "meta_mean_motion_ddot": 0,
        "tle_line1": "1 44793U 19078A   25353.20249241 -.00000077  00000+0  00000+0 0  9997",
        "tle_line2": "2 44793  54.1023 306.1592 0006038  24.3104 335.7082  1.86232161 41295"
      },
      "geometry": {
        "type": "Point",
        "coordinates": [
          155.2127500387498,
          -33.928467444235494
        ]
      }
    }
  ]
}